[
    {
        "Altitude(m)": 610399.5071875736,
        "Argument of Periapsis(deg)": 0.0,
        "Eccentricity": 0.0,
        "Inclination(deg)": 60.0,
        "Latitude(deg)": 52.11127521536249,
        "Longitude(deg)": -117.415632694679,
        "Mean Anomaly(deg)": -294.5455,
        "RAAN(deg)": 295.00000000000006,
        "Satellite Name": "Test1 1302",
        "Satellite Number": 1302,
        "Semi-Major Axis(m)": 6980739.136638005,
        "Time(s)": 0
    },
    {
        "Altitude(m)": 610481.6581087424,
        "Argument of Periapsis(deg)": 0.00010418945913296404,
        "Eccentricity": 0.0,
        "Inclination(deg)": 60.0,
        "Latitude(deg)": 52.47087682304347,
        "Longitude(deg)": -116.63349673444087,
        "Mean Anomaly(deg)": -293.9253938545382,
        "RAAN(deg)": 294.99957995086027,
        "Satellite Name": "Test1 1302",
        "Satellite Number": 1302,
        "Semi-Major Axis(m)": 6980739.136638005,
        "Time(s)": 10
    },
    {
        "Altitude(m)": 610562.3478489928,
        "Argument of Periapsis(deg)": 0.0002083789182659281,
        "Eccentricity": 0.0,
        "Inclination(deg)": 60.0,
        "Latitude(deg)": 52.82463102779888,
        "Longitude(deg)": -115.8379478236099,
        "Mean Anomaly(deg)": -293.30528770907637,
        "RAAN(deg)": 294.99915990172053,
        "Satellite Name": "Test1 1302",
        "Satellite Number": 1302,
        "Semi-Major Axis(m)": 6980739.136638005,
        "Time(s)": 20
    },
    {
        "Altitude(m)": 610641.528942444,
        "Argument of Periapsis(deg)": 0.00031256837739889213,
        "Eccentricity": 0.0,
        "Inclination(deg)": 60.0,
        "Latitude(deg)": 53.17236830318421,
        "Longitude(deg)": -115.02882145387879,
        "Mean Anomaly(deg)": -292.6851815636145,
        "RAAN(deg)": 294.9987398525808,
        "Satellite Name": "Test1 1302",
        "Satellite Number": 1302,
        "Semi-Major Axis(m)": 6980739.136638005,
        "Time(s)": 30
    },
    {
        "Altitude(m)": 610719.1548796744,
        "Argument of Periapsis(deg)": 0.0004167578365318562,
        "Eccentricity": 0.0,
        "Inclination(deg)": 60.0,
        "Latitude(deg)": 53.51391564688129,
        "Longitude(deg)": -114.20596472945778,
        "Mean Anomaly(deg)": -292.0650754181527,
        "RAAN(deg)": 294.99831980344106,
        "Satellite Name": "Test1 1302",
        "Satellite Number": 1302,
        "Semi-Major Axis(m)": 6980739.136638005,
        "Time(s)": 40
    },
    {
        "Altitude(m)": 610795.1801300374,
        "Argument of Periapsis(deg)": 0.0005209472956648203,
        "Eccentricity": 0.0,
        "Inclination(deg)": 60.0,
        "Latitude(deg)": 53.84909670266508,
        "Longitude(deg)": -113.36923878124831,
        "Mean Anomaly(deg)": -291.44496927269086,
        "RAAN(deg)": 294.99789975430133,
        "Satellite Name": "Test1 1302",
        "Satellite Number": 1302,
        "Semi-Major Axis(m)": 6980739.136638005,
        "Time(s)": 50
    },
    {
        "Altitude(m)": 610869.560163498,
        "Argument of Periapsis(deg)": 0.0006251367547977843,
        "Eccentricity": 0.0,
        "Inclination(deg)": 60.0,
        "Latitude(deg)": 54.177731906693516,
        "Longitude(deg)": -112.51851973379101,
        "Mean Anomaly(deg)": -290.82486312722904,
        "RAAN(deg)": 294.99747970516154,
        "Satellite Name": "Test1 1302",
        "Satellite Number": 1302,
        "Semi-Major Axis(m)": 6980739.136638005,
        "Time(s)": 60
    },
    {
        "Altitude(m)": 610942.2514719637,
        "Argument of Periapsis(deg)": 0.0007293262139307483,
        "Eccentricity": 0.0,
        "Inclination(deg)": 60.0,
        "Latitude(deg)": 54.49963865978646,
        "Longitude(deg)": -111.65369973354974,
        "Mean Anomaly(deg)": -290.2047569817672,
        "RAAN(deg)": 294.99705965602186,
        "Satellite Name": "Test1 1302",
        "Satellite Number": 1302,
        "Semi-Major Axis(m)": 6980739.136638005,
        "Time(s)": 70
    },
    {
        "Altitude(m)": 611013.2115900944,
        "Argument of Periapsis(deg)": 0.0008335156730637124,
        "Eccentricity": 0.0,
        "Inclination(deg)": 60.0,
        "Latitude(deg)": 54.81463152731898,
        "Longitude(deg)": -110.7746895457889,
        "Mean Anomaly(deg)": -289.58465083630534,
        "RAAN(deg)": 294.9966396068821,
        "Satellite Name": "Test1 1302",
        "Satellite Number": 1302,
        "Semi-Major Axis(m)": 6980739.136638005,
        "Time(s)": 80
    },
    {
        "Altitude(m)": 611082.3991156131,
        "Argument of Periapsis(deg)": 0.0009377051321966765,
        "Eccentricity": 0.0,
        "Inclination(deg)": 60.0,
        "Latitude(deg)": 55.122522468285595,
        "Longitude(deg)": -109.88141968725468,
        "Mean Anomaly(deg)": -288.9645446908435,
        "RAAN(deg)": 294.99621955774234,
        "Satellite Name": "Test1 1302",
        "Satellite Number": 1302,
        "Semi-Major Axis(m)": 6980739.136638005,
        "Time(s)": 90
    },
    {
        "Altitude(m)": 611149.7737290867,
        "Argument of Periapsis(deg)": 0.0010418945913296407,
        "Eccentricity": 0.0,
        "Inclination(deg)": 60.0,
        "Latitude(deg)": 55.42312109499693,
        "Longitude(deg)": -108.97384159894384,
        "Mean Anomaly(deg)": -288.3444385453817,
        "RAAN(deg)": 294.99579950860254,
        "Satellite Name": "Test1 1302",
        "Satellite Number": 1302,
        "Semi-Major Axis(m)": 6980739.136638005,
        "Time(s)": 100
    },
    {
        "Altitude(m)": 611215.296213168,
        "Argument of Periapsis(deg)": 0.0011460840504626045,
        "Eccentricity": 0.0,
        "Inclination(deg)": 60.0,
        "Latitude(deg)": 55.71623496473866,
        "Longitude(deg)": -108.05193036160405,
        "Mean Anomaly(deg)": -287.7243323999199,
        "RAAN(deg)": 294.99537945946287,
        "Satellite Name": "Test1 1302",
        "Satellite Number": 1302,
        "Semi-Major Axis(m)": 6980739.136638005,
        "Time(s)": 110
    },
    {
        "Altitude(m)": 611278.9284712969,
        "Argument of Periapsis(deg)": 0.0012502735095955685,
        "Eccentricity": 0.0,
        "Inclination(deg)": 60.0,
        "Latitude(deg)": 56.001669904548066,
        "Longitude(deg)": -107.11568591627743,
        "Mean Anomaly(deg)": -287.104226254458,
        "RAAN(deg)": 294.9949594103231,
        "Satellite Name": "Test1 1302",
        "Satellite Number": 1302,
        "Semi-Major Axis(m)": 6980739.136638005,
        "Time(s)": 120
    },
    {
        "Altitude(m)": 611340.6335458445,
        "Argument of Periapsis(deg)": 0.0013544629687285324,
        "Eccentricity": 0.0,
        "Inclination(deg)": 60.0,
        "Latitude(deg)": 56.27923037005805,
        "Longitude(deg)": -106.1651342890364,
        "Mean Anomaly(deg)": -286.4841201089962,
        "RAAN(deg)": 294.99453936118334,
        "Satellite Name": "Test1 1302",
        "Satellite Number": 1302,
        "Semi-Major Axis(m)": 6980739.136638005,
        "Time(s)": 130
    },
    {
        "Altitude(m)": 611400.3756357422,
        "Argument of Periapsis(deg)": 0.0014586524278614966,
        "Eccentricity": 0.0,
        "Inclination(deg)": 60.0,
        "Latitude(deg)": 56.54871983910232,
        "Longitude(deg)": -105.200330317259,
        "Mean Anomaly(deg)": -285.8640139635344,
        "RAAN(deg)": 294.9941193120436,
        "Satellite Name": "Test1 1302",
        "Satellite Number": 1302,
        "Semi-Major Axis(m)": 6980739.136638005,
        "Time(s)": 140
    },
    {
        "Altitude(m)": 611458.1201134751,
        "Argument of Periapsis(deg)": 0.0015628418869944607,
        "Eccentricity": 0.0,
        "Inclination(deg)": 60.0,
        "Latitude(deg)": 56.80994124047612,
        "Longitude(deg)": -104.22135883438607,
        "Mean Anomaly(deg)": -285.24390781807256,
        "RAAN(deg)": 294.9936992629039,
        "Satellite Name": "Test1 1302",
        "Satellite Number": 1302,
        "Semi-Major Axis(m)": 6980739.136638005,
        "Time(s)": 150
    },
    {
        "Altitude(m)": 611513.8335415672,
        "Argument of Periapsis(deg)": 0.0016670313461274247,
        "Eccentricity": 0.0,
        "Inclination(deg)": 60.0,
        "Latitude(deg)": 57.06269741790353,
        "Longitude(deg)": -103.2283358069781,
        "Mean Anomaly(deg)": -284.62380167261074,
        "RAAN(deg)": 294.99327921376414,
        "Satellite Name": "Test1 1302",
        "Satellite Number": 1302,
        "Semi-Major Axis(m)": 6980739.136638005,
        "Time(s)": 160
    },
    {
        "Altitude(m)": 611567.4836884689,
        "Argument of Periapsis(deg)": 0.0017712208052603888,
        "Eccentricity": 0.0,
        "Inclination(deg)": 60.0,
        "Latitude(deg)": 57.30679162887387,
        "Longitude(deg)": -102.22141091624275,
        "Mean Anomaly(deg)": -284.00369552714886,
        "RAAN(deg)": 294.9928591646244,
        "Satellite Name": "Test1 1302",
        "Satellite Number": 1302,
        "Semi-Major Axis(m)": 6980739.136638005,
        "Time(s)": 170
    },
    {
        "Altitude(m)": 611619.0395438527,
        "Argument of Periapsis(deg)": 0.001875410264393353,
        "Eccentricity": 0.0,
        "Inclination(deg)": 60.0,
        "Latitude(deg)": 57.54202807757169,
        "Longitude(deg)": -101.20076853612143,
        "Mean Anomaly(deg)": -283.3835893816871,
        "RAAN(deg)": 294.9924391154846,
        "Satellite Name": "Test1 1302",
        "Satellite Number": 1302,
        "Semi-Major Axis(m)": 6980739.136638005,
        "Time(s)": 180
    },
    {
        "Altitude(m)": 611668.4713333208,
        "Argument of Periapsis(deg)": 0.0019795997235263173,
        "Eccentricity": 0.0,
        "Inclination(deg)": 60.0,
        "Latitude(deg)": 57.76821248065243,
        "Longitude(deg)": -100.1666285973525,
        "Mean Anomaly(deg)": -282.7634832362252,
        "RAAN(deg)": 294.99201906634494,
        "Satellite Name": "Test1 1302",
        "Satellite Number": 1302,
        "Semi-Major Axis(m)": 6980739.136638005,
        "Time(s)": 190
    }
]